OBJECT_NAME,OBJECT_ID,EPOCH,MEAN_MOTION,ECCENTRICITY,INCLINATION,RA_OF_ASC_NODE,ARG_OF_PERICENTER,MEAN_ANOMALY,EPHEMERIS_TYPE,CLASSIFICATION_TYPE,NORAD_CAT_ID,ELEMENT_SET_NO,REV_AT_EPOCH,BSTAR,MEAN_MOTION_DOT,MEAN_MOTION_DDOT
ONEWEB-0410,2022-012A,2026-07-11T12:24:15.749280,13.17649907,.00019891,87.9152,1.0192,52.8851,307.2462,0,U,51622,999,21690,.20791037E-4,.21E-6,0
ONEWEB-0411,2022-012B,2026-07-11T23:34:26.363712,13.10378168,.0002241,87.8826,31.3268,96.8578,263.2804,0,U,51623,999,21253,-.15264E-4,.7E-7,0
ONEWEB-0415,2022-012C,2026-07-11T23:29:32.286624,13.10378597,.0002111,87.8819,31.3252,87.3407,272.7962,0,U,51624,999,21253,-.58855E-3,-.193E-5,0
ONEWEB-0416,2022-012D,2026-07-11T23:46:40.107936,13.10377074,.0002211,87.8817,31.3400,84.7092,275.4288,0,U,51625,999,21257,.11521E-2,.415E-5,0
ONEWEB-0422,2022-012E,2026-07-11T19:56:13.706016,13.17651316,.00018715,87.9149,0.9569,113.1896,246.9433,0,U,51626,999,21705,.35984467E-3,.153E-5,0
ONEWEB-0423,2022-012F,2026-07-11T21:35:51.643392,13.17647867,.0001806,87.9140,0.9473,89.8726,270.2613,0,U,51627,999,21695,.40939E-4,.29E-6,0
ONEWEB-0425,2022-012G,2026-07-12T00:01:20.707104,13.10374684,.0001873,87.8817,31.3221,73.6234,286.5099,0,U,51628,999,21257,.18195E-2,.648E-5,0
ONEWEB-0428,2022-012H,2026-07-11T23:31:59.219328,13.10378213,.0001819,87.8811,31.3321,86.0536,274.0799,0,U,51629,999,21253,-.31849E-3,-.99E-6,0
ONEWEB-0431,2022-012J,2026-07-11T22:47:46.455072,13.10369482,.0002368,87.8811,31.3311,103.0102,257.1290,0,U,51630,999,21258,-.70054E-3,-.232E-5,0
ONEWEB-0434,2022-012K,2026-07-12T00:06:25.845120,13.10372910,.000172,87.8822,31.3471,65.6887,294.4420,0,U,51631,999,21257,.19455E-2,.692E-5,0
ONEWEB-0435,2022-012L,2026-07-11T13:16:15.737952,13.10374075,.00017998,87.8810,31.4210,97.7590,262.3742,0,U,51632,999,21250,.14706453E-2,.526E-5,0
ONEWEB-0436,2022-012M,2026-07-11T21:23:42.125856,13.17648832,.0001861,87.9146,0.9324,99.4130,260.7211,0,U,51633,999,21693,-.72652E-3,-.269E-5,0
ONEWEB-0438,2022-012N,2026-07-11T12:54:15.393888,13.10376590,.00018655,87.8821,31.4285,77.8733,282.2603,0,U,51634,999,21253,.18807786E-2,.669E-5,0
ONEWEB-0439,2022-012P,2026-07-11T23:58:53.103072,13.10374802,.0001796,87.8816,31.3234,84.2709,275.8623,0,U,51635,999,21257,.18E-2,.641E-5,0
ONEWEB-0442,2022-012Q,2026-07-11T21:12:47.708064,13.17650500,.0001799,87.9138,0.9652,75.3409,284.7922,0,U,51636,999,21692,.29393E-4,.24E-6,0
ONEWEB-0443,2022-012R,2026-07-11T21:40:42.567744,13.17649470,.000148,87.9139,0.9618,93.1898,266.9402,0,U,51637,999,21697,.12699E-3,.62E-6,0
ONEWEB-0444,2022-012S,2026-07-12T03:24:06.762816,13.10379539,.0001569,87.8816,31.2928,88.8032,271.3275,0,U,51638,999,21260,.12327E-2,.443E-5,0
ONEWEB-0445,2022-012T,2026-07-11T13:13:48.381888,13.10374399,.00019304,87.8825,31.4012,86.9011,273.2337,0,U,51639,999,21253,.14813709E-2,.53E-5,0
ONEWEB-0446,2022-012U,2026-07-11T14:31:59.830176,13.10351765,.0002278,87.8864,31.4196,104.2742,255.8639,0,U,51640,999,21252,-.48792407E-3,-.158E-5,0
ONEWEB-0448,2022-012V,2026-07-11T23:49:05.823264,13.10378423,.0001775,87.8810,31.3360,87.3327,272.8004,0,U,51641,999,21254,.14506E-2,.519E-5,0
ONEWEB-0449,2022-012W,2026-07-11T23:56:25.353888,13.10374901,.0001949,87.8814,31.3225,68.0882,292.0452,0,U,51642,999,21255,.19375E-2,.689E-5,0
ONEWEB-0451,2022-012X,2026-07-11T21:18:51.008832,13.17650699,.0001749,87.9153,0.9315,86.7698,273.3634,0,U,51643,999,21691,-.1855E-3,-.59E-6,0
ONEWEB-0452,2022-012Y,2026-07-11T21:16:24.674016,13.17647542,.0001543,87.9137,0.9659,88.5372,271.5936,0,U,51644,999,21692,.89204E-4,.48E-6,0
ONEWEB-0456,2022-012AA,2026-07-12T00:08:37.220640,13.10371170,.0001795,87.8824,31.3094,91.7880,268.3453,0,U,51646,999,21259,.1858E-2,.661E-5,0
ONEWEB-0457,2022-012AB,2026-07-11T23:36:40.390848,13.10378962,.0002135,87.8820,31.3302,78.6271,281.5096,0,U,51647,999,21259,.12989E-3,.58E-6,0
ONEWEB-0458,2022-012AC,2026-07-12T00:07:25.335840,13.10372328,.0001601,87.8815,31.3133,86.8767,273.2543,0,U,51648,999,21255,.21095E-2,.749E-5,0
ONEWEB-0461,2022-012AD,2026-07-12T01:26:42.628704,13.17650055,.0001967,87.9151,0.9106,90.4920,269.6437,0,U,51649,999,21716,.16819E-3,.78E-6,0
ONEWEB-0463,2022-012AE,2026-07-11T12:14:32.704800,13.17650714,.00021622,87.9144,1.0411,93.0164,267.1215,0,U,51650,999,21687,.93552352E-4,.49E-6,0
ONEWEB-0464,2022-012AF,2026-07-12T00:03:45.798624,13.10372842,.0001573,87.8814,31.3349,95.1545,264.9762,0,U,51651,999,21257,.20339E-2,.723E-5,0
ONEWEB-0468,2022-012AG,2026-07-11T20:31:09.331968,13.10370677,.00016667,87.8811,31.3579,93.6944,266.4374,0,U,51652,999,21253,.16097982E-2,.575E-5,0
ONEWEB-0473,2022-012AH,2026-07-11T23:51:33.369408,13.10375471,.0001855,87.8818,31.3335,86.1196,274.0144,0,U,51653,999,21255,.14984E-2,.536E-5,0
