ONEWEB-0410             
1 51622U 22012A   26192.51684895  .00000021  00000+0  20791-4 0  9994
2 51622  87.9152   1.0192 0001989  52.8851 307.2462 13.17649907216908
ONEWEB-0411             
1 51623U 22012B   26192.98224958  .00000007  00000+0 -15264-4 0  9990
2 51623  87.8826  31.3268 0002241  96.8578 263.2804 13.10378168212539
ONEWEB-0415             
1 51624U 22012C   26192.97884591 -.00000193  00000+0 -58855-3 0  9994
2 51624  87.8819  31.3252 0002111  87.3407 272.7962 13.10378597212533
ONEWEB-0416             
1 51625U 22012D   26192.99074199  .00000415  00000+0  11521-2 0  9995
2 51625  87.8817  31.3400 0002211  84.7092 275.4288 13.10377074212573
ONEWEB-0422             
1 51626U 22012E   26192.83071419  .00000153  00000+0  35984-3 0  9990
2 51626  87.9149   0.9569 0001871 113.1896 246.9433 13.17651316217055
ONEWEB-0423             
1 51627U 22012F   26192.89990328  .00000029  00000+0  40939-4 0  9995
2 51627  87.9140   0.9473 0001806  89.8726 270.2613 13.17647867216954
ONEWEB-0425             
1 51628U 22012G   26193.00093411  .00000648  00000+0  18195-2 0  9991
2 51628  87.8817  31.3221 0001873  73.6234 286.5099 13.10374684212572
ONEWEB-0428             
1 51629U 22012H   26192.98054652 -.00000099  00000+0 -31849-3 0  9996
2 51629  87.8811  31.3321 0001819  86.0536 274.0799 13.10378213212538
ONEWEB-0431             
1 51630U 22012J   26192.94984323 -.00000232  00000+0 -70054-3 0  9991
2 51630  87.8811  31.3311 0002368 103.0102 257.1290 13.10369482212589
ONEWEB-0434             
1 51631U 22012K   26193.00446580  .00000692  00000+0  19455-2 0  9993
2 51631  87.8822  31.3471 0001720  65.6887 294.4420 13.10372910212571
ONEWEB-0435             
1 51632U 22012L   26192.55295993  .00000526  00000+0  14706-2 0  9993
2 51632  87.8810  31.4210 0001799  97.7590 262.3742 13.10374075212502
ONEWEB-0436             
1 51633U 22012M   26192.89145979 -.00000269  00000+0 -72652-3 0  9990
2 51633  87.9146   0.9324 0001861  99.4130 260.7211 13.17648832216938
ONEWEB-0438             
1 51634U 22012N   26192.53767817  .00000669  00000+0  18808-2 0  9997
2 51634  87.8821  31.4285 0001865  77.8733 282.2603 13.10376590212534
ONEWEB-0439             
1 51635U 22012P   26192.99922573  .00000641  00000+0  18000-2 0  9994
2 51635  87.8816  31.3234 0001796  84.2709 275.8623 13.10374802212578
ONEWEB-0442             
1 51636U 22012Q   26192.88388551  .00000024  00000+0  29393-4 0  9999
2 51636  87.9138   0.9652 0001799  75.3409 284.7922 13.17650500216927
ONEWEB-0443             
1 51637U 22012R   26192.90327046  .00000062  00000+0  12699-3 0  9997
2 51637  87.9139   0.9618 0001480  93.1898 266.9402 13.17649470216972
ONEWEB-0444             
1 51638U 22012S   26193.14174494  .00000443  00000+0  12327-2 0  9992
2 51638  87.8816  31.2928 0001569  88.8032 271.3275 13.10379539212607
ONEWEB-0445             
1 51639U 22012T   26192.55125442  .00000530  00000+0  14814-2 0  9996
2 51639  87.8825  31.4012 0001930  86.9011 273.2337 13.10374399212533
ONEWEB-0446             
1 51640U 22012U   26192.60555359 -.00000158  00000+0 -48792-3 0  9999
2 51640  87.8864  31.4196 0002278 104.2742 255.8639 13.10351765212524
ONEWEB-0448             
1 51641U 22012V   26192.99242851  .00000519  00000+0  14506-2 0  9996
2 51641  87.8810  31.3360 0001775  87.3327 272.8004 13.10378423212546
ONEWEB-0449             
1 51642U 22012W   26192.99751567  .00000689  00000+0  19375-2 0  9993
2 51642  87.8814  31.3225 0001949  68.0882 292.0452 13.10374901212555
ONEWEB-0451             
1 51643U 22012X   26192.88809038 -.00000059  00000+0 -18550-3 0  9997
2 51643  87.9153   0.9315 0001749  86.7698 273.3634 13.17650699216911
ONEWEB-0452             
1 51644U 22012Y   26192.88639669  .00000048  00000+0  89204-4 0  9990
2 51644  87.9137   0.9659 0001543  88.5372 271.5936 13.17647542216925
ONEWEB-0456             
1 51646U 22012AA  26193.00598635  .00000661  00000+0  18580-2 0  9992
2 51646  87.8824  31.3094 0001795  91.7880 268.3453 13.10371170212590
ONEWEB-0457             
1 51647U 22012AB  26192.98380082  .00000058  00000+0  12989-3 0  9992
2 51647  87.8820  31.3302 0002135  78.6271 281.5096 13.10378962212592
ONEWEB-0458             
1 51648U 22012AC  26193.00515435  .00000749  00000+0  21095-2 0  9993
2 51648  87.8815  31.3133 0001601  86.8767 273.2543 13.10372328212558
ONEWEB-0461             
1 51649U 22012AD  26193.06021561  .00000078  00000+0  16819-3 0  9996
2 51649  87.9151   0.9106 0001967  90.4920 269.6437 13.17650055217168
ONEWEB-0463             
1 51650U 22012AE  26192.51010075  .00000049  00000+0  93552-4 0  9993
2 51650  87.9144   1.0411 0002162  93.0164 267.1215 13.17650714216876
ONEWEB-0464             
1 51651U 22012AF  26193.00261341  .00000723  00000+0  20339-2 0  9993
2 51651  87.8814  31.3349 0001573  95.1545 264.9762 13.10372842212578
ONEWEB-0468             
1 51652U 22012AG  26192.85496912  .00000575  00000+0  16098-2 0  9992
2 51652  87.8811  31.3579 0001666  93.6944 266.4374 13.10370677212536
ONEWEB-0473             
1 51653U 22012AH  26192.99413622  .00000536  00000+0  14984-2 0  9994
2 51653  87.8818  31.3335 0001855  86.1196 274.0144 13.10375471212559
